CSS (TIANHE)            
1 48274U 21035A   24215.57505371  .00021747  00000+0  27138-3 0  9997
2 48274  41.4677 160.1826 0000905 314.6737  45.4027 15.59352376186356
